STARLINK-30967          
1 58416U 23180Q   26068.93640021  .00016796  00000+0  61816-3 0  9998
2 58416  43.0036  51.1487 0002723 303.7372  56.3220 15.27595324127660
LIZZIESAT-1 (LS-1)      
1 59132U 24043AL  26068.89230471  .00005784  00000+0  22329-3 0  9993
2 59132  97.5461 203.4772 0009923 229.9925 130.0443 15.26635711111780
